[{"OBJECT_NAME":"SITRO-AIS 5 (KATYS)","OBJECT_ID":"2023-091L","EPOCH":"2026-04-25T20:09:04.489920","MEAN_MOTION":15.28249606,"ECCENTRICITY":0.0009889,"INCLINATION":97.51,"RA_OF_ASC_NODE":179.2811,"ARG_OF_PERICENTER":287.877,"MEAN_ANOMALY":72.139,"EPHEMERIS_TYPE":0,"CLASSIFICATION_TYPE":"U","NORAD_CAT_ID":57176,"ELEMENT_SET_NO":999,"REV_AT_EPOCH":15634,"BSTAR":0.00047837,"MEAN_MOTION_DOT":0.00013118,"MEAN_MOTION_DDOT":0},{"OBJECT_NAME":"SITRO-AIS 6 (CHIRKIN)","OBJECT_ID":"2023-091AC","EPOCH":"2026-04-25T20:00:00.780768","MEAN_MOTION":15.25055528,"ECCENTRICITY":0.0010361,"INCLINATION":97.5105,"RA_OF_ASC_NODE":178.6609,"ARG_OF_PERICENTER":293.2439,"MEAN_ANOMALY":66.7707,"EPHEMERIS_TYPE":0,"CLASSIFICATION_TYPE":"U","NORAD_CAT_ID":57192,"ELEMENT_SET_NO":999,"REV_AT_EPOCH":15630,"BSTAR":0.00027664,"MEAN_MOTION_DOT":6.851e-5,"MEAN_MOTION_DDOT":0},{"OBJECT_NAME":"SITRO-AIS 8 (ANOKHIN)","OBJECT_ID":"2023-091AD","EPOCH":"2026-04-25T19:31:53.133024","MEAN_MOTION":15.30726302,"ECCENTRICITY":0.00091,"INCLINATION":97.5092,"RA_OF_ASC_NODE":180.6399,"ARG_OF_PERICENTER":283.4891,"MEAN_ANOMALY":76.5335,"EPHEMERIS_TYPE":0,"CLASSIFICATION_TYPE":"U","NORAD_CAT_ID":57193,"ELEMENT_SET_NO":999,"REV_AT_EPOCH":15643,"BSTAR":0.00053342,"MEAN_MOTION_DOT":0.00015798,"MEAN_MOTION_DDOT":0},{"OBJECT_NAME":"SITRO-AIS 7 (FARTUSHNIY)","OBJECT_ID":"2023-091AE","EPOCH":"2026-04-25T19:49:46.098336","MEAN_MOTION":15.24772926,"ECCENTRICITY":0.0010242,"INCLINATION":97.5103,"RA_OF_ASC_NODE":178.5045,"ARG_OF_PERICENTER":294.4559,"MEAN_ANOMALY":65.561,"EPHEMERIS_TYPE":0,"CLASSIFICATION_TYPE":"U","NORAD_CAT_ID":57194,"ELEMENT_SET_NO":999,"REV_AT_EPOCH":15629,"BSTAR":0.00026517,"MEAN_MOTION_DOT":6.508e-5,"MEAN_MOTION_DDOT":0},{"OBJECT_NAME":"SITRO-AIS 10 (BURDAEV)","OBJECT_ID":"2023-091AK","EPOCH":"2026-04-25T20:39:25.286112","MEAN_MOTION":15.36631878,"ECCENTRICITY":0.0005553,"INCLINATION":97.5111,"RA_OF_ASC_NODE":185.227,"ARG_OF_PERICENTER":250.7164,"MEAN_ANOMALY":109.348,"EPHEMERIS_TYPE":0,"CLASSIFICATION_TYPE":"U","NORAD_CAT_ID":57199,"ELEMENT_SET_NO":999,"REV_AT_EPOCH":15672,"BSTAR":0.00065607,"MEAN_MOTION_DOT":0.00023438,"MEAN_MOTION_DDOT":0},{"OBJECT_NAME":"SITRO-AIS 9 (SHCHUKIN)","OBJECT_ID":"2023-091AM","EPOCH":"2026-04-25T19:21:03.963168","MEAN_MOTION":15.36191282,"ECCENTRICITY":0.0005754,"INCLINATION":97.5109,"RA_OF_ASC_NODE":184.9402,"ARG_OF_PERICENTER":251.8106,"MEAN_ANOMALY":108.2511,"EPHEMERIS_TYPE":0,"CLASSIFICATION_TYPE":"U","NORAD_CAT_ID":57201,"ELEMENT_SET_NO":999,"REV_AT_EPOCH":15670,"BSTAR":0.00060131,"MEAN_MOTION_DOT":0.00021167,"MEAN_MOTION_DDOT":0},{"OBJECT_NAME":"SITRO-AIS 12 (SMIRENNIY)","OBJECT_ID":"2023-091AQ","EPOCH":"2026-04-25T19:21:31.746816","MEAN_MOTION":15.36465583,"ECCENTRICITY":0.000552,"INCLINATION":97.5121,"RA_OF_ASC_NODE":185.3754,"ARG_OF_PERICENTER":244.1507,"MEAN_ANOMALY":115.9167,"EPHEMERIS_TYPE":0,"CLASSIFICATION_TYPE":"U","NORAD_CAT_ID":57204,"ELEMENT_SET_NO":999,"REV_AT_EPOCH":15672,"BSTAR":0.00059402,"MEAN_MOTION_DOT":0.00021093,"MEAN_MOTION_DDOT":0},{"OBJECT_NAME":"SITRO-AIS 11 (SHEFFER)","OBJECT_ID":"2023-091AU","EPOCH":"2026-04-25T20:00:32.542272","MEAN_MOTION":15.36849029,"ECCENTRICITY":0.0005498,"INCLINATION":97.5119,"RA_OF_ASC_NODE":185.6187,"ARG_OF_PERICENTER":243.5542,"MEAN_ANOMALY":116.5138,"EPHEMERIS_TYPE":0,"CLASSIFICATION_TYPE":"U","NORAD_CAT_ID":57208,"ELEMENT_SET_NO":999,"REV_AT_EPOCH":15674,"BSTAR":0.0005589,"MEAN_MOTION_DOT":0.00020085,"MEAN_MOTION_DDOT":0},{"OBJECT_NAME":"SITRO-AIS 25","OBJECT_ID":"2024-039R","EPOCH":"2026-04-25T20:12:26.164800","MEAN_MOTION":14.93078643,"ECCENTRICITY":0.0147099,"INCLINATION":95.3919,"RA_OF_ASC_NODE":199.1308,"ARG_OF_PERICENTER":150.3827,"MEAN_ANOMALY":210.5832,"EPHEMERIS_TYPE":0,"CLASSIFICATION_TYPE":"U","NORAD_CAT_ID":59066,"ELEMENT_SET_NO":999,"REV_AT_EPOCH":11691,"BSTAR":0.000522,"MEAN_MOTION_DOT":6.692e-5,"MEAN_MOTION_DDOT":0},{"OBJECT_NAME":"SITRO-AIS 26","OBJECT_ID":"2024-039S","EPOCH":"2026-04-25T20:04:22.090656","MEAN_MOTION":14.92885483,"ECCENTRICITY":0.0147338,"INCLINATION":95.3919,"RA_OF_ASC_NODE":199.035,"ARG_OF_PERICENTER":150.9438,"MEAN_ANOMALY":210.009,"EPHEMERIS_TYPE":0,"CLASSIFICATION_TYPE":"U","NORAD_CAT_ID":59067,"ELEMENT_SET_NO":999,"REV_AT_EPOCH":11690,"BSTAR":0.00049816,"MEAN_MOTION_DOT":6.355e-5,"MEAN_MOTION_DDOT":0},{"OBJECT_NAME":"SITRO-AIS 27","OBJECT_ID":"2024-039T","EPOCH":"2026-04-25T21:18:51.148800","MEAN_MOTION":14.93291351,"ECCENTRICITY":0.0146402,"INCLINATION":95.392,"RA_OF_ASC_NODE":199.3188,"ARG_OF_PERICENTER":149.5514,"MEAN_ANOMALY":211.4317,"EPHEMERIS_TYPE":0,"CLASSIFICATION_TYPE":"U","NORAD_CAT_ID":59068,"ELEMENT_SET_NO":999,"REV_AT_EPOCH":11693,"BSTAR":0.00044069,"MEAN_MOTION_DOT":5.665e-5,"MEAN_MOTION_DDOT":0},{"OBJECT_NAME":"SITRO-AIS 28","OBJECT_ID":"2024-039U","EPOCH":"2026-04-25T20:48:07.231968","MEAN_MOTION":14.93330411,"ECCENTRICITY":0.0146309,"INCLINATION":95.3929,"RA_OF_ASC_NODE":199.3483,"ARG_OF_PERICENTER":149.4205,"MEAN_ANOMALY":211.5654,"EPHEMERIS_TYPE":0,"CLASSIFICATION_TYPE":"U","NORAD_CAT_ID":59071,"ELEMENT_SET_NO":999,"REV_AT_EPOCH":11693,"BSTAR":0.00043323,"MEAN_MOTION_DOT":5.573e-5,"MEAN_MOTION_DDOT":0},{"OBJECT_NAME":"GRBBETA","OBJECT_ID":"2024-128C","EPOCH":"2026-04-25T18:45:21.841056","MEAN_MOTION":15.06204708,"ECCENTRICITY":0.0047083,"INCLINATION":61.9913,"RA_OF_ASC_NODE":40.0697,"ARG_OF_PERICENTER":123.627,"MEAN_ANOMALY":236.9328,"EPHEMERIS_TYPE":0,"CLASSIFICATION_TYPE":"U","NORAD_CAT_ID":60237,"ELEMENT_SET_NO":999,"REV_AT_EPOCH":9837,"BSTAR":0.00028477,"MEAN_MOTION_DOT":4.079e-5,"MEAN_MOTION_DDOT":0},{"OBJECT_NAME":"OOV-CUBE (TUBSAT-30)","OBJECT_ID":"2024-128F","EPOCH":"2026-04-25T05:14:51.639936","MEAN_MOTION":15.02502609,"ECCENTRICITY":0.0050615,"INCLINATION":61.9958,"RA_OF_ASC_NODE":50.2328,"ARG_OF_PERICENTER":122.1099,"MEAN_ANOMALY":238.492,"EPHEMERIS_TYPE":0,"CLASSIFICATION_TYPE":"U","NORAD_CAT_ID":60240,"ELEMENT_SET_NO":999,"REV_AT_EPOCH":9815,"BSTAR":0.00019941,"MEAN_MOTION_DOT":2.518e-5,"MEAN_MOTION_DDOT":0},{"OBJECT_NAME":"ROBUSTA-3A (MEDITERRANEE)","OBJECT_ID":"2024-128J","EPOCH":"2026-04-25T20:44:31.187040","MEAN_MOTION":15.10841331,"ECCENTRICITY":0.0047957,"INCLINATION":61.9879,"RA_OF_ASC_NODE":33.1586,"ARG_OF_PERICENTER":117.41,"MEAN_ANOMALY":243.1886,"EPHEMERIS_TYPE":0,"CLASSIFICATION_TYPE":"U","NORAD_CAT_ID":60243,"ELEMENT_SET_NO":999,"REV_AT_EPOCH":9851,"BSTAR":0.00060157,"MEAN_MOTION_DOT":0.00010121,"MEAN_MOTION_DDOT":0},{"OBJECT_NAME":"LASARSAT","OBJECT_ID":"2024-247Q","EPOCH":"2026-04-25T06:30:14.038848","MEAN_MOTION":15.43145867,"ECCENTRICITY":0.0005577,"INCLINATION":44.9748,"RA_OF_ASC_NODE":198.8191,"ARG_OF_PERICENTER":349.2824,"MEAN_ANOMALY":10.7945,"EPHEMERIS_TYPE":0,"CLASSIFICATION_TYPE":"U","NORAD_CAT_ID":62391,"ELEMENT_SET_NO":999,"REV_AT_EPOCH":7513,"BSTAR":0.00073766,"MEAN_MOTION_DOT":0.00033198,"MEAN_MOTION_DDOT":0}]
