SITRO-AIS 5 (KATYS)     
1 57176U 23091L   26115.83963530  .00013118  00000+0  47837-3 0  9998
2 57176  97.5100 179.2811 0009889 287.8770  72.1390 15.28249606156346
SITRO-AIS 6 (CHIRKIN)   
1 57192U 23091AC  26115.83334237  .00006851  00000+0  27664-3 0  9994
2 57192  97.5105 178.6609 0010361 293.2439  66.7707 15.25055528156309
SITRO-AIS 8 (ANOKHIN)   
1 57193U 23091AD  26115.81380941  .00015798  00000+0  53342-3 0  9998
2 57193  97.5092 180.6399 0009100 283.4891  76.5335 15.30726302156437
SITRO-AIS 7 (FARTUSHNIY)
1 57194U 23091AE  26115.82622799  .00006508  00000+0  26517-3 0  9993
2 57194  97.5103 178.5045 0010242 294.4559  65.5610 15.24772926156291
SITRO-AIS 10 (BURDAEV)  
1 57199U 23091AK  26115.86070933  .00023438  00000+0  65607-3 0  9993
2 57199  97.5111 185.2270 0005553 250.7164 109.3480 15.36631878156729
SITRO-AIS 9 (SHCHUKIN)  
1 57201U 23091AM  26115.80629587  .00021167  00000+0  60131-3 0  9990
2 57201  97.5109 184.9402 0005754 251.8106 108.2511 15.36191282156705
SITRO-AIS 12 (SMIRENNIY)
1 57204U 23091AQ  26115.80661744  .00021093  00000+0  59402-3 0  9991
2 57204  97.5121 185.3754 0005520 244.1507 115.9167 15.36465583156720
SITRO-AIS 11 (SHEFFER)  
1 57208U 23091AU  26115.83370998  .00020085  00000+0  55890-3 0  9993
2 57208  97.5119 185.6187 0005498 243.5542 116.5138 15.36849029156748
SITRO-AIS 25            
1 59066U 24039R   26115.84196950  .00006692  00000+0  52200-3 0  9995
2 59066  95.3919 199.1308 0147099 150.3827 210.5832 14.93078643116915
SITRO-AIS 26            
1 59067U 24039S   26115.83636679  .00006355  00000+0  49816-3 0  9997
2 59067  95.3919 199.0350 0147338 150.9438 210.0090 14.92885483116909
SITRO-AIS 27            
1 59068U 24039T   26115.88809200  .00005665  00000+0  44069-3 0  9993
2 59068  95.3920 199.3188 0146402 149.5514 211.4317 14.93291351116930
SITRO-AIS 28            
1 59071U 24039U   26115.86675037  .00005573  00000+0  43323-3 0  9994
2 59071  95.3929 199.3483 0146309 149.4205 211.5654 14.93330411116939
GRBBETA                 
1 60237U 24128C   26115.78150279  .00004079  00000+0  28477-3 0  9999
2 60237  61.9913  40.0697 0047083 123.6270 236.9328 15.06204708 98371
OOV-CUBE (TUBSAT-30)    
1 60240U 24128F   26115.21865324  .00002518  00000+0  19941-3 0  9997
2 60240  61.9958  50.2328 0050615 122.1099 238.4920 15.02502609 98154
ROBUSTA-3A (MEDITERRAN*)
1 60243U 24128J   26115.86424985  .00010121  00000+0  60157-3 0  9999
2 60243  61.9879  33.1586 0047957 117.4100 243.1886 15.10841331 98511
LASARSAT                
1 62391U 24247Q   26115.27099582  .00033198  00000+0  73766-3 0  9992
2 62391  44.9748 198.8191 0005577 349.2824  10.7945 15.43145867 75138
